65197,STARLINK-34952,2025,95.64,-1.0,+,97.6,Active,0,LEO,USA,USA,Unknown,Unknown,Unknown,1 65197U 25175Z   25275.11585918  .00015236  00000+0  10578-2 0  9996,2 65197  97.6063 146.4142 0001995  93.4807 266.6648 15.05652074  8784,15.05652074,0.0001995,LEO
65198,STARLINK-34981,2025,94.11,-1.0,+,53.16,Active,0,LEO,USA,USA,Unknown,Unknown,Unknown,1 65198U 25176A   25275.12943834  .00068156  00000+0  22917-2 0  9993,2 65198  53.1591 172.0968 0001164  68.0729 292.0396 15.30208422  8806,15.30208422,0.0001164,LEO
65199,STARLINK-34821,2025,93.53,-1.0,+,53.16,Active,0,LEO,USA,USA,Unknown,Unknown,Unknown,1 65199U 25176B   25275.13908608  .00107520  00000+0  26597-2 0  9992,2 65199  53.1589 171.4575 0000924  83.2332 276.8778 15.39626649  8755,15.39626649,9.24e-05,LEO
65200,STARLINK-34865,2025,93.53,-1.0,+,53.16,Active,0,LEO,USA,USA,Unknown,Unknown,Unknown,1 65200U 25176C   25275.16670139  .00106916  00000+0  26471-2 0  9992,2 65200  53.1599 171.6871 0001117  71.6719 261.3450 15.39601891  5738,15.39601891,0.0001117,LEO
65201,STARLINK-34843,2025,93.53,-1.0,+,53.16,Active,0,LEO,USA,USA,Unknown,Unknown,Unknown,1 65201U 25176D   25275.05990301  .00080222  00000+0  19945-2 0  9996,2 65201  53.1597 171.6726 0001029  84.6954 275.4168 15.39620446  8803,15.39620446,0.0001029,LEO
65202,STARLINK-34905,2025,93.53,-1.0,+,53.16,Active,0,LEO,USA,USA,Unknown,Unknown,Unknown,1 65202U 25176E   25275.09240390  .00117913  00000+0  29048-2 0  9990,2 65202  53.1590 171.8778 0000736  54.3521 305.7553 15.39699437  8805,15.39699437,7.36e-05,LEO
65203,STARLINK-34914,2025,93.53,-1.0,+,53.16,Active,0,LEO,USA,USA,Unknown,Unknown,Unknown,1 65203U 25176F   25275.14837155  .00103791  00000+0  25684-2 0  9999,2 65203  53.1595 171.5141 0001152  78.9174 281.1961 15.39633627  8811,15.39633627,0.0001152,LEO
65204,STARLINK-34787,2025,93.53,-1.0,+,53.16,Active,0,LEO,USA,USA,Unknown,Unknown,Unknown,1 65204U 25176G   25275.05095162  .00092144  00000+0  22834-2 0  9997,2 65204  53.1603 171.6140 0001663  62.0886 298.0287 15.39652417  8808,15.39652417,0.0001663,LEO
65205,STARLINK-34796,2025,93.53,-1.0,+,53.16,Active,0,LEO,USA,USA,Unknown,Unknown,Unknown,1 65205U 25176H   25275.14372888  .00095260  00000+0  23613-2 0  9999,2 65205  53.1583 171.4845 0001212  68.3695 291.7439 15.39627090  8812,15.3962709,0.0001212,LEO
65206,STARLINK-34763,2025,93.53,-1.0,+,53.16,Active,0,LEO,USA,USA,Unknown,Unknown,Unknown,1 65206U 25176J   25275.13444050  .00082656  00000+0  20546-2 0  9997,2 65206  53.1593 171.4263 0001153  78.7013 281.4121 15.39611506  8810,15.39611506,0.0001153,LEO
65207,STARLINK-34901,2025,93.53,-1.0,+,53.16,Active,0,LEO,USA,USA,Unknown,Unknown,Unknown,1 65207U 25176K   25275.12978578  .00084037  00000+0  20870-2 0  9999,2 65207  53.1592 171.3985 0001290  94.6618 265.4535 15.39632335  8814,15.39632335,0.000129,LEO
65208,STARLINK-34841,2025,93.53,-1.0,+,53.16,Active,0,LEO,USA,USA,Unknown,Unknown,Unknown,1 65208U 25176L   25275.03677492  .00131359  00000+0  32368-2 0  9996,2 65208  53.1598 172.2426 0001892  42.7281 317.3870 15.39627827  8795,15.39627827,0.0001892,LEO
65209,STARLINK-34976,2025,93.53,-1.0,+,53.16,Active,0,LEO,USA,USA,Unknown,Unknown,Unknown,1 65209U 25176M   25274.98138916  .00080092  00000+0  19897-2 0  9992,2 65209  53.1603 171.8919 0001347 123.5353 236.5781 15.39645093  8796,15.39645093,0.0001347,LEO
65210,STARLINK-34941,2025,93.53,-1.0,+,53.16,Active,0,LEO,USA,USA,Unknown,Unknown,Unknown,1 65210U 25176N   25275.03213520  .00133001  00000+0  32759-2 0  9997,2 65210  53.1600 172.2111 0001430  65.4564 294.6590 15.39633045  8792,15.39633045,0.000143,LEO
65211,STARLINK-34847,2025,93.53,-1.0,+,53.16,Active,0,LEO,USA,USA,Unknown,Unknown,Unknown,1 65211U 25176P   25274.98116483  .00129146  00000+0  31841-2 0  9997,2 65211  53.1587 172.6024 0001480 103.5961 256.5208 15.39620831  8785,15.39620831,0.000148,LEO
65212,STARLINK-34897,2025,93.53,-1.0,+,53.16,Active,0,LEO,USA,USA,Unknown,Unknown,Unknown,1 65212U 25176Q   25275.04142501  .00120032  00000+0  29634-2 0  9998,2 65212  53.1601 172.2673 0001222  47.4275 312.6833 15.39624024  8794,15.39624024,0.0001222,LEO
65213,STARLINK-34907,2025,93.53,-1.0,+,53.16,Active,0,LEO,USA,USA,Unknown,Unknown,Unknown,1 65213U 25176R   25275.05559370  .00086799  00000+0  21540-2 0  9995,2 65213  53.1597 171.6412 0001390  61.9380 298.1765 15.39638218  8801,15.39638218,0.000139,LEO
65214,STARLINK-34511,2025,93.53,-1.0,+,53.16,Active,0,LEO,USA,USA,Unknown,Unknown,Unknown,1 65214U 25176S   25275.08809623  .00093524  00000+0  23192-2 0  9997,2 65214  53.1594 171.8478 0000508  79.6682 280.4380 15.39623279  8745,15.39623279,5.08e-05,LEO
65215,STARLINK-33913,2025,94.11,-1.0,+,53.16,Active,0,LEO,USA,USA,Unknown,Unknown,Unknown,1 65215U 25176T   25275.08617477  .00032281  00000+0  10976-2 0  9991,2 65215  53.1584 171.8317 0001112  92.7389 267.3739 15.30191180  8800,15.3019118,0.0001112,LEO
65216,STARLINK-34302,2025,93.53,-1.0,+,53.16,Active,0,LEO,USA,USA,Unknown,Unknown,Unknown,1 65216U 25176U   25275.16691686  .00080702  00000+0  20068-2 0  9999,2 65216  53.1601 171.6296 0001494 150.4439 209.6650 15.39610960  8819,15.3961096,0.0001494,LEO
65217,STARLINK-34871,2025,93.53,-1.0,+,53.16,Active,0,LEO,USA,USA,Unknown,Unknown,Unknown,1 65217U 25176V   25275.09738493  .00078373  00000+0  19496-2 0  9994,2 65217  53.1594 171.9058 0001242  57.6698 302.4427 15.39614626  8802,15.39614626,0.0001242,LEO
65218,STARLINK-34833,2025,93.53,-1.0,+,53.16,Active,0,LEO,USA,USA,Unknown,Unknown,Unknown,1 65218U 25176W   25274.95793073  .00132400  00000+0  32621-2 0  9991,2 65218  53.1589 172.4561 0001347  60.5787 299.5352 15.39626363  8781,15.39626363,0.0001347,LEO
65219,STARLINK-34960,2025,93.53,-1.0,+,53.16,Active,0,LEO,USA,USA,Unknown,Unknown,Unknown,1 65219U 25176X   25275.14803608  .00090946  00000+0  22573-2 0  9993,2 65219  53.1587 171.5076 0001302  91.4678 268.6476 15.39611101  8816,15.39611101,0.0001302,LEO
65220,STARLINK-34603,2025,93.53,-1.0,+,53.16,Active,0,LEO,USA,USA,Unknown,Unknown,Unknown,1 65220U 25176Y   25275.09274074  .00094993  00000+0  23532-2 0  9990,2 65220  53.1588 171.8768 0001128  77.7418 282.3713 15.39647016  8805,15.39647016,0.0001128,LEO
65221,STARLINK-34974,2025,93.52,-1.0,+,53.16,Active,0,LEO,USA,USA,Unknown,Unknown,Unknown,1 65221U 25176Z   25275.13873949  .00115842  00000+0  28619-2 0  9990,2 65221  53.1587 171.4504 0000848  69.5693 290.5403 15.39623828  8814,15.39623828,8.48e-05,LEO
65222,STARLINK-34999,2025,93.53,-1.0,+,53.16,Active,0,LEO,USA,USA,Unknown,Unknown,Unknown,1 65222U 25176AA  25275.14339215  .00116789  00000+0  28845-2 0  9997,2 65222  53.1584 171.4786 0001203  62.9884 297.1244 15.39627758  8811,15.39627758,0.0001203,LEO
65223,STARLINK-34996,2025,93.53,-1.0,+,53.16,Active,0,LEO,USA,USA,Unknown,Unknown,Unknown,1 65223U 25176AB  25275.05525575  .00078852  00000+0  19600-2 0  9991,2 65223  53.1599 171.6365 0001234  76.4626 283.6517 15.39635234  8801,15.39635234,0.0001234,LEO
65224,STARLINK-34975,2025,93.53,-1.0,+,53.16,Active,0,LEO,USA,USA,Unknown,Unknown,Unknown,1 65224U 25176AC  25275.06023794  .00073602  00000+0  18323-2 0  9998,2 65224  53.1594 171.6681 0001069  91.4673 268.6454 15.39620718  8807,15.39620718,0.0001069,LEO
65225,STARLINK-34257,2025,93.53,-1.0,+,53.16,Active,0,LEO,USA,USA,Unknown,Unknown,Unknown,1 65225U 25176AD  25275.13410309  .00091066  00000+0  22586-2 0  9999,2 65225  53.1590 171.4201 0001556  65.2397 294.8769 15.39632493  8750,15.39632493,0.0001556,LEO
65226,SHIYAN-28B 02,2025,100.76,-1.0,+,11.0,Active,0,LEO,PRC,China,Unknown,Unknown,Unknown,1 65226U 25177A   25275.14933648  .00001034  00000+0  23376-3 0  9993,2 65226  10.9972 175.2701 0003939 278.8970  81.0812 14.29116554  6564,14.29116554,0.0003939,LEO
