OBJECT_NAME,OBJECT_ID,EPOCH,MEAN_MOTION,ECCENTRICITY,INCLINATION,RA_OF_ASC_NODE,ARG_OF_PERICENTER,MEAN_ANOMALY,EPHEMERIS_TYPE,CLASSIFICATION_TYPE,NORAD_CAT_ID,ELEMENT_SET_NO,REV_AT_EPOCH,BSTAR,MEAN_MOTION_DOT,MEAN_MOTION_DDOT
STARLINK-34952,2025-175Z,2025-10-02T02:46:50.233152,15.05652074,0.0001995,97.6063,146.4142,93.4807,266.6648,0,U,65197,999,878,0.0010578,0.00015236,0.0
STARLINK-34981,2025-176A,2025-10-02T03:06:23.472576,15.30208422,0.0001164,53.1591,172.0968,68.0729,292.0396,0,U,65198,999,880,0.0022917,0.00068156,0.0
STARLINK-34821,2025-176B,2025-10-02T03:20:17.037312,15.39626649,9.24e-05,53.1589,171.4575,83.2332,276.8778,0,U,65199,999,875,0.0026597,0.0010752,0.0
STARLINK-34865,2025-176C,2025-10-02T04:00:03.000096,15.39601891,0.0001117,53.1599,171.6871,71.6719,261.345,0,U,65200,999,573,0.0026471,0.00106916,0.0
STARLINK-34843,2025-176D,2025-10-02T01:26:15.620064,15.39620446,0.0001029,53.1597,171.6726,84.6954,275.4168,0,U,65201,999,880,0.0019945,0.00080222,0.0
STARLINK-34905,2025-176E,2025-10-02T02:13:03.696960,15.39699437,7.36e-05,53.159,171.8778,54.3521,305.7553,0,U,65202,999,880,0.0029048,0.00117913,0.0
STARLINK-34914,2025-176F,2025-10-02T03:33:39.301920,15.39633627,0.0001152,53.1595,171.5141,78.9174,281.1961,0,U,65203,999,881,0.0025684,0.00103791,0.0
STARLINK-34787,2025-176G,2025-10-02T01:13:22.219968,15.39652417,0.0001663,53.1603,171.614,62.0886,298.0287,0,U,65204,999,880,0.0022834,0.00092144,0.0
STARLINK-34796,2025-176H,2025-10-02T03:26:58.175232,15.3962709,0.0001212,53.1583,171.4845,68.3695,291.7439,0,U,65205,999,881,0.0023613,0.0009526,0.0
STARLINK-34763,2025-176J,2025-10-02T03:13:35.659200,15.39611506,0.0001153,53.1593,171.4263,78.7013,281.4121,0,U,65206,999,881,0.0020546,0.00082656,0.0
STARLINK-34901,2025-176K,2025-10-02T03:06:53.491392,15.39632335,0.000129,53.1592,171.3985,94.6618,265.4535,0,U,65207,999,881,0.002087,0.00084037,0.0
STARLINK-34841,2025-176L,2025-10-02T00:52:57.353088,15.39627827,0.0001892,53.1598,172.2426,42.7281,317.387,0,U,65208,999,879,0.0032368,0.00131359,0.0
STARLINK-34976,2025-176M,2025-10-01T23:33:12.023424,15.39645093,0.0001347,53.1603,171.8919,123.5353,236.5781,0,U,65209,999,879,0.0019897,0.00080092,0.0
STARLINK-34941,2025-176N,2025-10-02T00:46:16.481280,15.39633045,0.000143,53.16,172.2111,65.4564,294.659,0,U,65210,999,879,0.0032759,0.00133001,0.0
STARLINK-34847,2025-176P,2025-10-01T23:32:52.641312,15.39620831,0.000148,53.1587,172.6024,103.5961,256.5208,0,U,65211,999,878,0.0031841,0.00129146,0.0
STARLINK-34897,2025-176Q,2025-10-02T00:59:39.120864,15.39624024,0.0001222,53.1601,172.2673,47.4275,312.6833,0,U,65212,999,879,0.0029634,0.00120032,0.0
STARLINK-34907,2025-176R,2025-10-02T01:20:03.295680,15.39638218,0.000139,53.1597,171.6412,61.938,298.1765,0,U,65213,999,880,0.002154,0.00086799,0.0
STARLINK-34511,2025-176S,2025-10-02T02:06:51.514272,15.39623279,5.08e-05,53.1594,171.8478,79.6682,280.438,0,U,65214,999,874,0.0023192,0.00093524,0.0
STARLINK-33913,2025-176T,2025-10-02T02:04:05.500128,15.3019118,0.0001112,53.1584,171.8317,92.7389,267.3739,0,U,65215,999,880,0.0010976,0.00032281,0.0
STARLINK-34302,2025-176U,2025-10-02T04:00:21.616704,15.3961096,0.0001494,53.1601,171.6296,150.4439,209.665,0,U,65216,999,881,0.0020068,0.00080702,0.0
STARLINK-34871,2025-176V,2025-10-02T02:20:14.057952,15.39614626,0.0001242,53.1594,171.9058,57.6698,302.4427,0,U,65217,999,880,0.0019496,0.00078373,0.0
STARLINK-34833,2025-176W,2025-10-01T22:59:25.215072,15.39626363,0.0001347,53.1589,172.4561,60.5787,299.5352,0,U,65218,999,878,0.0032621,0.001324,0.0
STARLINK-34960,2025-176X,2025-10-02T03:33:10.317312,15.39611101,0.0001302,53.1587,171.5076,91.4678,268.6476,0,U,65219,999,881,0.0022573,0.00090946,0.0
STARLINK-34603,2025-176Y,2025-10-02T02:13:32.799936,15.39647016,0.0001128,53.1588,171.8768,77.7418,282.3713,0,U,65220,999,880,0.0023532,0.00094993,0.0
STARLINK-34974,2025-176Z,2025-10-02T03:19:47.091936,15.39623828,8.48e-05,53.1587,171.4504,69.5693,290.5403,0,U,65221,999,881,0.0028619,0.00115842,0.0
STARLINK-34999,2025-176AA,2025-10-02T03:26:29.081760,15.39627758,0.0001203,53.1584,171.4786,62.9884,297.1244,0,U,65222,999,881,0.0028845,0.00116789,0.0
STARLINK-34996,2025-176AB,2025-10-02T01:19:34.096800,15.39635234,0.0001234,53.1599,171.6365,76.4626,283.6517,0,U,65223,999,880,0.00196,0.00078852,0.0
STARLINK-34975,2025-176AC,2025-10-02T01:26:44.558016,15.39620718,0.0001069,53.1594,171.6681,91.4673,268.6454,0,U,65224,999,880,0.0018323,0.00073602,0.0
STARLINK-34257,2025-176AD,2025-10-02T03:13:06.506976,15.39632493,0.0001556,53.159,171.4201,65.2397,294.8769,0,U,65225,999,875,0.0022586,0.00091066,0.0
SHIYAN-28B 02,2025-177A,2025-10-02T03:35:02.671872,14.29116554,0.0003939,10.9972,175.2701,278.897,81.0812,0,U,65226,999,656,0.00023376,1.034e-05,0.0
